{
  "type": "FeatureCollection",
  "features": [
    {
      "type": "Feature",
      "properties": {
        "norad_id": 34056,
        "name": "COSMOS 2251 DEB",
        "group": "cosmos-2251-debris",
        "lat": -65.65040369975317,
        "lon": -53.9478995701596,
        "alt_km": 867.5052656729385,
        "timestamp": "2025-12-06T20:37:56.469063+00:00",
        "meta_object_name": "COSMOS 2251 DEB",
        "meta_object_id": "1993-036JT",
        "meta_epoch": "2025-12-06T14:53:26.583648",
        "meta_mean_motion": 14.20514606,
        "meta_eccentricity": 0.01244021,
        "meta_inclination": 74.0602,
        "meta_ra_of_asc_node": 87.3189,
        "meta_arg_of_pericenter": 136.7503,
        "meta_mean_anomaly": 330.3427,
        "meta_ephemeris_type": 0,
        "meta_classification_type": "U",
        "meta_norad_cat_id": 34056,
        "meta_element_set_no": 999,
        "meta_rev_at_epoch": 86324,
        "meta_bstar": 0.0020368601,
        "meta_mean_motion_dot": 4.708e-05,
        "meta_mean_motion_ddot": 0,
        "tle_line1": "1 34056U 93036JT  25340.62044657  .00004708  00000+0  20369-2 0  9997",
        "tle_line2": "2 34056  74.0602  87.3189 0124402 136.7503 330.3427 14.20514606863247"
      },
      "geometry": {
        "type": "Point",
        "coordinates": [
          -53.9478995701596,
          -65.65040369975317
        ]
      }
    },
    {
      "type": "Feature",
      "properties": {
        "norad_id": 34058,
        "name": "COSMOS 2251 DEB",
        "group": "cosmos-2251-debris",
        "lat": -31.607485748819023,
        "lon": 177.42767950422783,
        "alt_km": 1276.2161771902402,
        "timestamp": "2025-12-06T20:37:56.469073+00:00",
        "meta_object_name": "COSMOS 2251 DEB",
        "meta_object_id": "1993-036JV",
        "meta_epoch": "2025-12-06T15:52:06.837600",
        "meta_mean_motion": 13.56063284,
        "meta_eccentricity": 0.03782198,
        "meta_inclination": 73.932,
        "meta_ra_of_asc_node": 187.9651,
        "meta_arg_of_pericenter": 184.3616,
        "meta_mean_anomaly": 251.3752,
        "meta_ephemeris_type": 0,
        "meta_classification_type": "U",
        "meta_norad_cat_id": 34058,
        "meta_element_set_no": 999,
        "meta_rev_at_epoch": 83060,
        "meta_bstar": 0.0009180272,
        "meta_mean_motion_dot": 9.98e-06,
        "meta_mean_motion_ddot": 0,
        "tle_line1": "1 34058U 93036JV  25340.66119025  .00000998  00000+0  91803-3 0  9994",
        "tle_line2": "2 34058  73.9320 187.9651 0378219 184.3616 251.3752 13.56063284830602"
      },
      "geometry": {
        "type": "Point",
        "coordinates": [
          177.42767950422783,
          -31.607485748819023
        ]
      }
    },
    {
      "type": "Feature",
      "properties": {
        "norad_id": 34059,
        "name": "COSMOS 2251 DEB",
        "group": "cosmos-2251-debris",
        "lat": -59.102102545548625,
        "lon": 168.79443014603928,
        "alt_km": 710.5450100675998,
        "timestamp": "2025-12-06T20:37:56.469084+00:00",
        "meta_object_name": "COSMOS 2251 DEB",
        "meta_object_id": "1993-036JW",
        "meta_epoch": "2025-12-06T16:13:35.223168",
        "meta_mean_motion": 14.5289439,
        "meta_eccentricity": 0.00188602,
        "meta_inclination": 74.0372,
        "meta_ra_of_asc_node": 197.7148,
        "meta_arg_of_pericenter": 275.4848,
        "meta_mean_anomaly": 141.493,
        "meta_ephemeris_type": 0,
        "meta_classification_type": "U",
        "meta_norad_cat_id": 34059,
        "meta_element_set_no": 999,
        "meta_rev_at_epoch": 88371,
        "meta_bstar": 0.0012293858,
        "meta_mean_motion_dot": 5.049e-05,
        "meta_mean_motion_ddot": 0,
        "tle_line1": "1 34059U 93036JW  25340.67610212  .00005049  00000+0  12294-2 0  9998",
        "tle_line2": "2 34059  74.0372 197.7148 0018860 275.4848 141.4930 14.52894390883718"
      },
      "geometry": {
        "type": "Point",
        "coordinates": [
          168.79443014603928,
          -59.102102545548625
        ]
      }
    },
    {
      "type": "Feature",
      "properties": {
        "norad_id": 34061,
        "name": "COSMOS 2251 DEB",
        "group": "cosmos-2251-debris",
        "lat": -9.340682946486439,
        "lon": 96.95603331497861,
        "alt_km": 774.9342907707787,
        "timestamp": "2025-12-06T20:37:56.469096+00:00",
        "meta_object_name": "COSMOS 2251 DEB",
        "meta_object_id": "1993-036JY",
        "meta_epoch": "2025-12-06T13:55:22.895040",
        "meta_mean_motion": 14.40335673,
        "meta_eccentricity": 0.0020278,
        "meta_inclination": 74.0392,
        "meta_ra_of_asc_node": 274.7744,
        "meta_arg_of_pericenter": 352.6854,
        "meta_mean_anomaly": 188.0207,
        "meta_ephemeris_type": 0,
        "meta_classification_type": "U",
        "meta_norad_cat_id": 34061,
        "meta_element_set_no": 999,
        "meta_rev_at_epoch": 88091,
        "meta_bstar": 0.00069240962,
        "meta_mean_motion_dot": 2.175e-05,
        "meta_mean_motion_ddot": 0,
        "tle_line1": "1 34061U 93036JY  25340.58012610  .00002175  00000+0  69241-3 0  9991",
        "tle_line2": "2 34061  74.0392 274.7744 0020278 352.6854 188.0207 14.40335673880916"
      },
      "geometry": {
        "type": "Point",
        "coordinates": [
          96.95603331497861,
          -9.340682946486439
        ]
      }
    },
    {
      "type": "Feature",
      "properties": {
        "norad_id": 34062,
        "name": "COSMOS 2251 DEB",
        "group": "cosmos-2251-debris",
        "lat": -41.56107488148541,
        "lon": -15.691721106369824,
        "alt_km": 588.1038205439818,
        "timestamp": "2025-12-06T20:37:56.469106+00:00",
        "meta_object_name": "COSMOS 2251 DEB",
        "meta_object_id": "1993-036JZ",
        "meta_epoch": "2025-12-06T11:38:31.117632",
        "meta_mean_motion": 14.78277554,
        "meta_eccentricity": 0.00757746,
        "meta_inclination": 74.0278,
        "meta_ra_of_asc_node": 150.3334,
        "meta_arg_of_pericenter": 230.5663,
        "meta_mean_anomaly": 160.3485,
        "meta_ephemeris_type": 0,
        "meta_classification_type": "U",
        "meta_norad_cat_id": 34062,
        "meta_element_set_no": 999,
        "meta_rev_at_epoch": 88503,
        "meta_bstar": 0.0043825817,
        "meta_mean_motion_dot": 0.00033526,
        "meta_mean_motion_ddot": 0,
        "tle_line1": "1 34062U 93036JZ  25340.48508238  .00033526  00000+0  43826-2 0  9991",
        "tle_line2": "2 34062  74.0278 150.3334 0075774 230.5663 160.3485 14.78277554885030"
      },
      "geometry": {
        "type": "Point",
        "coordinates": [
          -15.691721106369824,
          -41.56107488148541
        ]
      }
    },
    {
      "type": "Feature",
      "properties": {
        "norad_id": 34064,
        "name": "COSMOS 2251 DEB",
        "group": "cosmos-2251-debris",
        "lat": 54.830643468008404,
        "lon": 77.80187633830876,
        "alt_km": 755.9303564991715,
        "timestamp": "2025-12-06T20:37:56.469117+00:00",
        "meta_object_name": "COSMOS 2251 DEB",
        "meta_object_id": "1993-036KB",
        "meta_epoch": "2025-12-06T07:27:42.110784",
        "meta_mean_motion": 14.42301647,
        "meta_eccentricity": 0.00218958,
        "meta_inclination": 74.0331,
        "meta_ra_of_asc_node": 282.7937,
        "meta_arg_of_pericenter": 350.009,
        "meta_mean_anomaly": 163.2469,
        "meta_ephemeris_type": 0,
        "meta_classification_type": "U",
        "meta_norad_cat_id": 34064,
        "meta_element_set_no": 999,
        "meta_rev_at_epoch": 88049,
        "meta_bstar": 0.0011222126,
        "meta_mean_motion_dot": 3.69e-05,
        "meta_mean_motion_ddot": 0,
        "tle_line1": "1 34064U 93036KB  25340.31090406  .00003690  00000+0  11222-2 0  9992",
        "tle_line2": "2 34064  74.0331 282.7937 0021895 350.0090 163.2469 14.42301647880499"
      },
      "geometry": {
        "type": "Point",
        "coordinates": [
          77.80187633830876,
          54.830643468008404
        ]
      }
    },
    {
      "type": "Feature",
      "properties": {
        "norad_id": 34065,
        "name": "COSMOS 2251 DEB",
        "group": "cosmos-2251-debris",
        "lat": -42.74502333144238,
        "lon": 104.29249653445278,
        "alt_km": 780.3947056261286,
        "timestamp": "2025-12-06T20:37:56.469128+00:00",
        "meta_object_name": "COSMOS 2251 DEB",
        "meta_object_id": "1993-036KC",
        "meta_epoch": "2025-12-06T13:42:57.166272",
        "meta_mean_motion": 14.38051803,
        "meta_eccentricity": 0.00160942,
        "meta_inclination": 74.0356,
        "meta_ra_of_asc_node": 269.4818,
        "meta_arg_of_pericenter": 8.4493,
        "meta_mean_anomaly": 165.1484,
        "meta_ephemeris_type": 0,
        "meta_classification_type": "U",
        "meta_norad_cat_id": 34065,
        "meta_element_set_no": 999,
        "meta_rev_at_epoch": 88116,
        "meta_bstar": 0.00032902006,
        "meta_mean_motion_dot": 9.71e-06,
        "meta_mean_motion_ddot": 0,
        "tle_line1": "1 34065U 93036KC  25340.57149498  .00000971  00000+0  32902-3 0  9995",
        "tle_line2": "2 34065  74.0356 269.4818 0016094   8.4493 165.1484 14.38051803881167"
      },
      "geometry": {
        "type": "Point",
        "coordinates": [
          104.29249653445278,
          -42.74502333144238
        ]
      }
    }
  ]
}